{
  "links" : {
    "next" : "https://api.nasa.gov/neo/rest/v1/feed?start_date=2001-06-23&end_date=2001-06-23&detailed=true&api_key=t0TVs3DtDT2H8Oy2Zy8m2eVrNsAVKAexjcZXUckd",
    "prev" : "https://api.nasa.gov/neo/rest/v1/feed?start_date=2001-06-21&end_date=2001-06-21&detailed=true&api_key=t0TVs3DtDT2H8Oy2Zy8m2eVrNsAVKAexjcZXUckd",
    "self" : "https://api.nasa.gov/neo/rest/v1/feed?start_date=2001-06-22&end_date=2001-06-22&detailed=true&api_key=t0TVs3DtDT2H8Oy2Zy8m2eVrNsAVKAexjcZXUckd"
  },
  "element_count" : 1,
  "near_earth_objects" : {
    "2001-06-22" : [ {
      "links" : {
        "self" : "https://api.nasa.gov/neo/rest/v1/neo/2413216?api_key=t0TVs3DtDT2H8Oy2Zy8m2eVrNsAVKAexjcZXUckd"
      },
      "neo_reference_id" : "2413216",
      "name" : "413216 (2003 MA)",
      "nasa_jpl_url" : "http://ssd.jpl.nasa.gov/sbdb.cgi?sstr=2413216",
      "absolute_magnitude_h" : 18.9,
      "estimated_diameter" : {
        "kilometers" : {
          "estimated_diameter_min" : 0.4411182,
          "estimated_diameter_max" : 0.9863702813
        },
        "meters" : {
          "estimated_diameter_min" : 441.1181999969,
          "estimated_diameter_max" : 986.3702813054
        },
        "miles" : {
          "estimated_diameter_min" : 0.2740980571,
          "estimated_diameter_max" : 0.6129018881
        },
        "feet" : {
          "estimated_diameter_min" : 1447.2382352778,
          "estimated_diameter_max" : 3236.1230737181
        }
      },
      "is_potentially_hazardous_asteroid" : false,
      "close_approach_data" : [ {
        "close_approach_date" : "2001-06-22",
        "epoch_date_close_approach" : 993193200000,
        "relative_velocity" : {
          "kilometers_per_second" : "13.1091013531",
          "kilometers_per_hour" : "47192.7648712248",
          "miles_per_hour" : "29323.7488167897"
        },
        "miss_distance" : {
          "astronomical" : "0.4323184171",
          "lunar" : "168.1718597412",
          "kilometers" : "64673916",
          "miles" : "40186508"
        },
        "orbiting_body" : "Earth"
      } ],
      "orbital_data" : {
        "orbit_id" : "39",
        "orbit_determination_date" : "2017-04-06 09:21:34",
        "orbit_uncertainty" : "0",
        "minimum_orbit_intersection" : ".145406",
        "jupiter_tisserand_invariant" : "4.163",
        "epoch_osculation" : "2458000.5",
        "eccentricity" : ".3019609935595554",
        "semi_major_axis" : "1.641412626868696",
        "inclination" : "21.95824587644875",
        "ascending_node_longitude" : "96.00967402585489",
        "orbital_period" : "768.1129406173987",
        "perihelion_distance" : "1.145770039218225",
        "perihelion_argument" : "158.1919171321572",
        "aphelion_distance" : "2.137055214519167",
        "perihelion_time" : "2458186.147489839784",
        "mean_anomaly" : "272.9905345838823",
        "mean_motion" : ".4686810766534371",
        "equinox" : "J2000"
      }
    } ]
  }
}